NORAD_CAT_ID,OBJECT_NAME,OBJECT_TYPE,EPOCH,MEAN_MOTION,ECCENTRICITY,INCLINATION,RA_OF_ASC_NODE,ARG_OF_PERICENTER,MEAN_ANOMALY,BSTAR,MEAN_MOTION_DOT,MEAN_MOTION_DDOT,TLE_LINE0,TLE_LINE1,TLE_LINE2,SEMIMAJOR_AXIS,PERIOD,APOGEE,PERIGEE,DECAYED
55771.0,STARLINK-5591,PAYLOAD,2023-04-16 21:46:57,15.69921877,0.000359,70.0022,31.0698,278.8232,81.2557,3.0906e-05,3.505e-05,0.0,0 STARLINK-5591,1 55771U 23028AG  23106.90761566  .00003505  00000-0  30906-4 0  9997,2 55771  70.0022  31.0698 0003590 278.8232  81.2557 15.69921877  7600,6737.258,91.724,361.541,356.704,0.0
55771.0,STARLINK-5591,PAYLOAD,2023-04-17 03:53:58,15.69932943,0.0002954,70.0023,30.3524,264.2886,95.7973,6.5748e-05,7.703e-05,0.0,0 STARLINK-5591,1 55771U 23028AG  23107.16247911  .00007703  00000-0  65748-4 0  9995,2 55771  70.0023  30.3524 0002954 264.2886  95.7973 15.69932943  7639,6737.226,91.724,361.081,357.101,0.0
55771.0,STARLINK-5591,PAYLOAD,2023-04-17 05:25:43,15.69933341,0.0002896,70.0022,30.1737,264.6239,95.4627,6.6148e-05,7.751e-05,0.0,0 STARLINK-5591,1 55771U 23028AG  23107.22619582  .00007751  00000-0  66148-4 0  9997,2 55771  70.0022  30.1737 0002896 264.6239  95.4627 15.69933341  7651,6737.225,91.724,361.041,357.139,0.0
55771.0,STARLINK-5591,PAYLOAD,2023-04-17 20:43:14,15.69923937,0.0003194,70.0019,28.3812,269.5614,90.5216,2.7321e-05,3.074e-05,0.0,0 STARLINK-5591,1 55771U 23028AG  23107.86336656  .00003074  00000-0  27321-4 0  9999,2 55771  70.0019  28.3812 0003194 269.5614  90.5216 15.69923937  7743,6737.252,91.724,361.268,356.965,0.0
55771.0,STARLINK-5591,PAYLOAD,2023-04-18 04:22:00,15.69935178,0.0003346,70.0018,27.485,270.6084,89.4728,6.7386e-05,7.901e-05,0.0,0 STARLINK-5591,1 55771U 23028AG  23108.18194707  .00007901  00000-0  67386-4 0  9992,2 55771  70.0018  27.4850 0003346 270.6084  89.4728 15.69935178  7809,6737.219,91.724,361.339,356.83,0.0
55771.0,STARLINK-5591,PAYLOAD,2023-04-19 04:50:02,15.69938999,0.0003012,70.0029,24.6194,254.874,105.2123,9.448e-05,0.00011169,0.0,0 STARLINK-5591,1 55771U 23028AG  23109.20141324  .00011169  00000-0  94480-4 0  9999,2 55771  70.0029  24.6194 0003012 254.8740 105.2123 15.69938999  7950,6737.209,91.723,361.103,357.044,0.0
55771.0,STARLINK-5591,PAYLOAD,2023-04-20 03:46:19,15.69924033,0.0002887,70.0034,21.9323,264.7945,95.2921,3.9226e-05,4.506e-05,0.0,0 STARLINK-5591,1 55771U 23028AG  23110.15716966  .00004506  00000-0  39226-4 0  9999,2 55771  70.0034  21.9323 0002887 264.7945  95.2921 15.69924033  8102,6737.251,91.724,361.061,357.171,0.0
55771.0,STARLINK-5591,PAYLOAD,2023-04-21 04:14:21,15.69944029,0.000408,70.0017,19.0667,265.0691,95.0039,0.00010699,0.00012683,0.0,0 STARLINK-5591,1 55771U 23028AG  23111.17663220  .00012683  00000-0  10699-3 0  9993,2 55771  70.0017  19.0667 0004080 265.0691  95.0039 15.69944029  8274,6737.194,91.723,361.808,356.31,0.0
55771.0,STARLINK-5591,PAYLOAD,2023-04-21 19:31:52,15.69926181,0.0003863,70.0023,17.2741,262.3427,97.733,1.6913e-05,1.821e-05,0.0,0 STARLINK-5591,1 55771U 23028AG  23111.81380028  .00001821  00000-0  16913-4 0  9994,2 55771  70.0023  17.2741 0003863 262.3427  97.7330 15.69926181  8361,6737.245,91.724,361.713,356.508,0.0
55771.0,STARLINK-5591,PAYLOAD,2023-04-22 19:59:54,15.69917493,0.000416,70.0012,14.4103,264.3798,95.6923,-1.1779e-05,-1.629e-05,0.0,0 STARLINK-5591,1 55771U 23028AG  23112.83327086 -.00001629  00000-0 -11779-4 0  9995,2 55771  70.0012  14.4103 0004160 264.3798  95.6923 15.69917493  8523,6737.27,91.725,361.938,356.332,0.0
55771.0,STARLINK-5591,PAYLOAD,2023-04-23 02:06:54,15.69927078,0.0003804,70.0014,13.6934,252.1228,107.9554,1.9143e-05,2.09e-05,0.0,0 STARLINK-5591,1 55771U 23028AG  23113.08813654  .00002090  00000-0  19143-4 0  9998,2 55771  70.0014  13.6934 0003804 252.1228 107.9554 15.69927078  8577,6737.243,91.724,361.67,356.545,0.0
55771.0,STARLINK-5591,PAYLOAD,2023-04-23 17:24:25,15.69937739,0.0003863,70.001,11.9025,256.0441,104.0325,4.2336e-05,4.884e-05,0.0,0 STARLINK-5591,1 55771U 23028AG  23113.72530074  .00004884  00000-0  42336-4 0  9994,2 55771  70.0010  11.9025 0003863 256.0441 104.0325 15.69937739  8670,6737.212,91.723,361.68,356.475,0.0
55771.0,STARLINK-5591,PAYLOAD,2023-04-24 02:34:56,15.69943938,0.0003376,70.0029,10.8267,260.9202,99.1612,9.7975e-05,0.00011594,0.0,0 STARLINK-5591,1 55771U 23028AG  23114.10759842  .00011594  00000-0  97975-4 0  9998,2 55771  70.0029  10.8267 0003376 260.9202  99.1612 15.69943938  8732,6737.194,91.723,361.334,356.785,0.0
55771.0,STARLINK-5591,PAYLOAD,2023-04-25 03:02:59,15.69884686,0.0003877,70.0,7.9611,253.1459,106.9311,-0.00013951,-0.00016929,0.0,0 STARLINK-5591,1 55771U 23028AG  23115.12707911 -.00016929  00000-0 -13951-3 0  9991,2 55771  70.0000   7.9611 0003877 253.1459 106.9311 15.69884686  8888,6737.364,91.726,361.841,356.617,0.0
55771.0,STARLINK-5591,PAYLOAD,2023-04-26 01:59:17,15.69918356,0.0002662,70.0036,5.2747,244.3886,115.7035,0.0001542,0.00018363,0.0,0 STARLINK-5591,1 55771U 23028AG  23116.08284717  .00018363  00000-0  15420-3 0  9996,2 55771  70.0036   5.2747 0002662 244.3886 115.7035 15.69918356  9047,6737.268,91.725,360.926,357.339,0.0
55771.0,STARLINK-5591,PAYLOAD,2023-04-27 02:27:18,15.69940881,0.000263,70.0014,2.4071,277.706,82.3837,-4.6822e-05,-5.841e-05,0.0,0 STARLINK-5591,1 55771U 23028AG  23117.10229223 -.00005841  00000-0 -46822-4 0  9991,2 55771  70.0014   2.4071 0002630 277.7060  82.3837 15.69940881  9194,6737.203,91.723,360.84,357.296,0.0
55771.0,STARLINK-5591,PAYLOAD,2023-04-27 16:13:04,15.69929022,0.0003231,70.0038,0.7941,266.4584,93.6243,-4.6258e-05,-5.772e-05,0.0,0 STARLINK-5591,1 55771U 23028AG  23117.67574609 -.00005772  00000-0 -46258-4 0  9990,2 55771  70.0038   0.7941 0003231 266.4584  93.6243 15.69929022  9281,6737.237,91.724,361.279,356.925,0.0
55771.0,STARLINK-5591,PAYLOAD,2023-04-28 01:23:34,15.69940195,0.0003138,70.0021,359.7185,263.8122,96.2716,0.00010047,0.00011893,0.0,0 STARLINK-5591,1 55771U 23028AG  23118.05804299  .00011893  00000-0  10047-3 0  9999,2 55771  70.0021 359.7185 0003138 263.8122  96.2716 15.69940195  9340,6737.205,91.723,361.184,356.956,0.0
55771.0,STARLINK-5591,PAYLOAD,2023-04-28 09:02:20,15.69928994,0.0003109,70.0017,358.8255,259.0931,100.9915,4.538e-05,5.248e-05,0.0,0 STARLINK-5591,1 55771U 23028AG  23118.37662883  .00005248  00000-0  45380-4 0  9991,2 55771  70.0017 358.8255 0003109 259.0931 100.9915 15.69928994  9398,6737.237,91.724,361.197,357.008,0.0
55771.0,STARLINK-5591,PAYLOAD,2023-04-29 01:51:36,15.69939096,0.0003529,69.9982,356.8555,276.6743,83.4051,6.3581e-05,7.444e-05,0.0,0 STARLINK-5591,1 55771U 23028AG  23119.07750885  .00007444  00000-0  63581-4 0  9992,2 55771  69.9982 356.8555 0003529 276.6743  83.4051 15.69939096  9514,6737.208,91.723,361.451,356.696,0.0
55771.0,STARLINK-5591,PAYLOAD,2023-04-29 17:09:08,15.69936763,0.0003204,70.0008,355.065,262.9598,97.1234,7.9886e-05,9.408e-05,0.0,0 STARLINK-5591,1 55771U 23028AG  23119.71467668  .00009408  00000-0  79886-4 0  9994,2 55771  70.0008 355.0650 0003204 262.9598  97.1234 15.69936763  9602,6737.215,91.723,361.239,356.921,0.0
55771.0,STARLINK-5591,PAYLOAD,2023-04-30 02:19:38,15.69938895,0.0003528,70.0008,353.9894,283.0811,76.9991,9.4251e-05,0.00011142,0.0,0 STARLINK-5591,1 55771U 23028AG  23120.09697604  .00011142  00000-0  94251-4 0  9993,2 55771  70.0008 353.9894 0003528 283.0811  76.9991 15.69938895  9669,6737.209,91.723,361.451,356.697,0.0
55771.0,STARLINK-5591,PAYLOAD,2023-04-30 17:37:10,15.69921229,0.0003534,70.0009,352.195,270.8533,89.2258,2.9209e-05,3.3e-05,0.0,0 STARLINK-5591,1 55771U 23028AG  23120.73414775  .00003300  00000-0  29209-4 0  9998,2 55771  70.0009 352.1950 0003534 270.8533  89.2258 15.69921229  9763,6737.259,91.724,361.505,356.743,0.0
55771.0,STARLINK-5591,PAYLOAD,2023-05-01 01:15:56,15.69930983,0.0003423,70.0006,351.2988,272.9325,87.1479,0.00012158,0.00014436,0.0,0 STARLINK-5591,1 55771U 23028AG  23121.05273180  .00014436  00000-0  12158-3 0  9993,2 55771  70.0006 351.2988 0003423 272.9325  87.1479 15.69930983  9815,6737.231,91.724,361.403,356.79,0.0
55771.0,STARLINK-5591,PAYLOAD,2023-05-01 18:05:12,15.69939882,0.0003349,70.001,349.3289,273.9024,86.1789,9.829e-05,0.0001163,0.0,0 STARLINK-5591,1 55771U 23028AG  23121.75361290  .00011630  00000-0  98290-4 0  9995,2 55771  70.0010 349.3289 0003349 273.9024  86.1789 15.69939882  9928,6737.206,91.723,361.327,356.815,0.0
55771.0,STARLINK-5591,PAYLOAD,2023-05-02 01:43:57,15.69938629,0.0003445,70.0009,348.4335,273.3369,86.7432,6.5174e-05,7.636e-05,0.0,0 STARLINK-5591,1 55771U 23028AG  23122.07219462  .00007636  00000-0  65174-4 0  9990,2 55771  70.0009 348.4335 0003445 273.3369  86.7432 15.69938629  9975,6737.21,91.723,361.396,356.754,0.0
55771.0,STARLINK-5591,PAYLOAD,2023-05-02 18:33:14,15.69919719,0.0003806,70.001,346.4628,286.6132,73.4646,-5.7726e-06,-9.07e-06,0.0,0 STARLINK-5591,1 55771U 23028AG  23122.77308446 -.00000907  00000-0 -57726-5 0  9999,2 55771  70.0010 346.4628 0003806 286.6132  73.4646 15.69919719 10089,6737.264,91.724,361.693,356.564,0.0
55771.0,STARLINK-5591,PAYLOAD,2023-05-02 21:36:44,15.69927875,0.0003401,70.0009,346.1061,268.688,91.3927,1.8201e-05,1.977e-05,0.0,0 STARLINK-5591,1 55771U 23028AG  23122.90051355  .00001977  00000-0  18201-4 0  9998,2 55771  70.0009 346.1061 0003401 268.6880  91.3927 15.69927875 10113,6737.24,91.724,361.397,356.814,0.0
55771.0,STARLINK-5591,PAYLOAD,2023-05-03 00:40:14,15.69927411,0.0003745,70.0001,345.7465,270.999,89.0777,3.0988e-05,3.515e-05,0.0,0 STARLINK-5591,1 55771U 23028AG  23123.02794815  .00003515  00000-0  30988-4 0  9993,2 55771  70.0001 345.7465 0003745 270.9990  89.0777 15.69927411 10121,6737.242,91.724,361.63,356.584,0.0
55771.0,STARLINK-5591,PAYLOAD,2023-05-03 08:19:00,15.69923853,0.0003713,69.9996,344.8509,268.3888,91.6882,2.5405e-05,2.843e-05,0.0,0 STARLINK-5591,1 55771U 23028AG  23123.34653265  .00002843  00000-0  25405-4 0  9992,2 55771  69.9996 344.8509 0003713 268.3888  91.6882 15.69923853 10180,6737.252,91.724,361.618,356.615,0.0
